{
    "links": {
        "self": "http://www.neowsapp.com/rest/v1/neo/3669251?api_key=iIulBulltgU6a56xZRHN4H3l9WmuAYTsLGpBGhQ2"
    },
    "id": "3669251",
    "neo_reference_id": "3669251",
    "name": "(2014 HF124)",
    "designation": "2014 HF124",
    "nasa_jpl_url": "http://ssd.jpl.nasa.gov/sbdb.cgi?sstr=3669251",
    "absolute_magnitude_h": 21.4,
    "estimated_diameter": {
        "kilometers": {
            "estimated_diameter_min": 0.1394938229,
            "estimated_diameter_max": 0.3119176705
        },
        "meters": {
            "estimated_diameter_min": 139.4938229344,
            "estimated_diameter_max": 311.9176705226
        },
        "miles": {
            "estimated_diameter_min": 0.0866774163,
            "estimated_diameter_max": 0.1938165949
        },
        "feet": {
            "estimated_diameter_min": 457.6569140361,
            "estimated_diameter_max": 1023.3519701574
        }
    },
    "is_potentially_hazardous_asteroid": false,
    "close_approach_data": [
        {
            "close_approach_date": "2014-04-04",
            "close_approach_date_full": "2014-Apr-04 12:50",
            "epoch_date_close_approach": 1396615800000,
            "relative_velocity": {
                "kilometers_per_second": "19.5423470768",
                "kilometers_per_hour": "70352.4494765581",
                "miles_per_hour": "43714.2761761425"
            },
            "miss_distance": {
                "astronomical": "0.3083687273",
                "lunar": "119.9554349197",
                "kilometers": "46131304.778690851",
                "miles": "28664663.5913657038"
            },
            "orbiting_body": "Earth"
        }
    ],
    "orbital_data": {
        "orbit_id": "5",
        "orbit_determination_date": "2017-04-06 08:41:22",
        "first_observation_date": "2014-04-26",
        "last_observation_date": "2014-05-04",
        "data_arc_in_days": 8,
        "observations_used": 28,
        "orbit_uncertainty": "8",
        "minimum_orbit_intersection": ".127065",
        "jupiter_tisserand_invariant": "3.679",
        "epoch_osculation": "2456775.5",
        "eccentricity": ".4652826966484973",
        "semi_major_axis": "1.828017779755723",
        "inclination": "37.49224651886968",
        "ascending_node_longitude": "205.8262221889968",
        "orbital_period": "902.7532281270509",
        "perihelion_distance": ".9774727376695814",
        "perihelion_argument": "302.4635666278049",
        "aphelion_distance": "2.678562821841865",
        "perihelion_time": "2456696.564416553029",
        "mean_anomaly": "31.47793788549074",
        "mean_motion": ".3987800749789561",
        "equinox": "J2000",
        "orbit_class": {
            "orbit_class_type": "APO",
            "orbit_class_description": "Near-Earth asteroid orbits which cross the Earth’s orbit similar to that of 1862 Apollo",
            "orbit_class_range": "a (semi-major axis) > 1.0 AU; q (perihelion) < 1.017 AU"
        }
    },
    "is_sentry_object": false
}